ORBCOMM FM115 [+]       
1 41186U 15081H   24070.75338546  .00000991  00000+0  23797-3 0  9998
2 41186  46.9990  80.1150 0000317 294.4387  65.6466 14.60434869439983
ORBCOMM FM108 [+]       
1 41187U 15081J   24070.21752889  .00001264  00000+0  31993-3 0  9991
2 41187  47.0040 135.0302 0002959 320.8591  39.2080 14.56343181439122
ORBCOMM FM117 [+]       
1 41188U 15081K   24070.45786946  .00001231  00000+0  31257-3 0  9996
2 41188  46.9999 132.8139 0003217 334.1448  25.9276 14.56348020439209
ORBCOMM FM116 [+]       
1 41189U 15081L   24070.51588151  .00000912  00000+0  24132-3 0  9991
2 41189  47.0002 222.3563 0001306 100.7246 259.3786 14.56299822438026
